{"type": "FeatureCollection", "features": [ {"type": "Feature", "properties": {"norad_id": 30675, "name": "FENGYUN 1C DEB", "group": "fengyun-1c-debris", "lat": 15.304164586692329, "lon": 65.57376307445732, "alt_km": 833.6990929306166, "timestamp": "2025-12-14T20:40:32.049713+00:00", "meta": {"OBJECT_NAME": "FENGYUN 1C DEB", "OBJECT_ID": "1999-025AQH", "EPOCH": "2025-12-14T03:55:20.899776", "MEAN_MOTION": 14.27419671, "ECCENTRICITY": 0.00540622, "INCLINATION": 98.754, "RA_OF_ASC_NODE": 67.2915, "ARG_OF_PERICENTER": 164.9755, "MEAN_ANOMALY": 225.9287, "EPHEMERIS_TYPE": 0, "CLASSIFICATION_TYPE": "U", "NORAD_CAT_ID": 30675, "ELEMENT_SET_NO": 999, "REV_AT_EPOCH": 96912, "BSTAR": 0.0019422719, "MEAN_MOTION_DOT": 4.797e-05, "MEAN_MOTION_DDOT": 0}, "tle": {"line1": "1 30675U 99025AQH 25348.16343634  .00004797  00000+0  19423-2 0  9995", "line2": "2 30675  98.7540  67.2915 0054062 164.9755 225.9287 14.27419671969124"}}, "geometry": {"type": "Point", "coordinates": [65.57376307445732, 15.304164586692329]}}, {"type": "Feature", "properties": {"norad_id": 30676, "name": "FENGYUN 1C DEB", "group": "fengyun-1c-debris", "lat": -78.83567072995614, "lon": -138.0698849057632, "alt_km": 1181.201218668637, "timestamp": "2025-12-14T20:40:32.049723+00:00", "meta": {"OBJECT_NAME": "FENGYUN 1C DEB", "OBJECT_ID": "1999-025AQJ", "EPOCH": "2025-12-12T06:09:12.900384", "MEAN_MOTION": 13.73909389, "ECCENTRICITY": 0.04722694, "INCLINATION": 98.2667, "RA_OF_ASC_NODE": 172.2213, "ARG_OF_PERICENTER": 49.6374, "MEAN_ANOMALY": 314.5031, "EPHEMERIS_TYPE": 0, "CLASSIFICATION_TYPE": "U", "NORAD_CAT_ID": 30676, "ELEMENT_SET_NO": 999, "REV_AT_EPOCH": 93917, "BSTAR": 0.001130987, "MEAN_MOTION_DOT": 2.353e-05, "MEAN_MOTION_DDOT": 0}, "tle": {"line1": "1 30676U 99025AQJ 25346.25639931  .00002353  00000+0  11310-2 0  9995", "line2": "2 30676  98.2667 172.2213 0472269  49.6374 314.5031 13.73909389939171"}}, "geometry": {"type": "Point", "coordinates": [-138.0698849057632, -78.83567072995614]}}, {"type": "Feature", "properties": {"norad_id": 30677, "name": "FENGYUN 1C DEB", "group": "fengyun-1c-debris", "lat": 75.83795450145148, "lon": -110.99770141553114, "alt_km": 762.1925997672934, "timestamp": "2025-12-14T20:40:32.049734+00:00", "meta": {"OBJECT_NAME": "FENGYUN 1C DEB", "OBJECT_ID": "1999-025AQK", "EPOCH": "2025-12-13T14:44:25.302336", "MEAN_MOTION": 14.38155703, "ECCENTRICITY": 0.00662336, "INCLINATION": 98.2548, "RA_OF_ASC_NODE": 32.6815, "ARG_OF_PERICENTER": 201.5022, "MEAN_ANOMALY": 286.7749, "EPHEMERIS_TYPE": 0, "CLASSIFICATION_TYPE": "U", "NORAD_CAT_ID": 30677, "ELEMENT_SET_NO": 999, "REV_AT_EPOCH": 97992, "BSTAR": 0.0015044836, "MEAN_MOTION_DOT": 4.643e-05, "MEAN_MOTION_DDOT": 0}, "tle": {"line1": "1 30677U 99025AQK 25347.61418174  .00004643  00000+0  15045-2 0  9994", "line2": "2 30677  98.2548  32.6815 0066233 201.5022 286.7749 14.38155703979924"}}, "geometry": {"type": "Point", "coordinates": [-110.99770141553114, 75.83795450145148]}}, {"type": "Feature", "properties": {"norad_id": 30678, "name": "FENGYUN 1C DEB", "group": "fengyun-1c-debris", "lat": -23.381105882535117, "lon": 125.72833627976482, "alt_km": 768.4675251256758, "timestamp": "2025-12-14T20:40:32.049744+00:00", "meta": {"OBJECT_NAME": "FENGYUN 1C DEB", "OBJECT_ID": "1999-025AQL", "EPOCH": "2025-12-14T08:41:08.339712", "MEAN_MOTION": 14.24196578, "ECCENTRICITY": 0.00715627, "INCLINATION": 99.0792, "RA_OF_ASC_NODE": 309.1767, "ARG_OF_PERICENTER": 225.9721, "MEAN_ANOMALY": 297.9289, "EPHEMERIS_TYPE": 0, "CLASSIFICATION_TYPE": "U", "NORAD_CAT_ID": 30678, "ELEMENT_SET_NO": 999, "REV_AT_EPOCH": 95898, "BSTAR": 0.0033010383, "MEAN_MOTION_DOT": 7.773e-05, "MEAN_MOTION_DDOT": 0}, "tle": {"line1": "1 30678U 99025AQL 25348.36190208  .00007773  00000+0  33010-2 0  9992", "line2": "2 30678  99.0792 309.1767 0071562 225.9721 297.9289 14.24196578958986"}}, "geometry": {"type": "Point", "coordinates": [125.72833627976482, -23.381105882535117]}}, {"type": "Feature", "properties": {"norad_id": 30679, "name": "FENGYUN 1C DEB", "group": "fengyun-1c-debris", "lat": -15.10430487508358, "lon": 43.14988969942116, "alt_km": 963.8325474028679, "timestamp": "2025-12-14T20:40:32.049754+00:00", "meta": {"OBJECT_NAME": "FENGYUN 1C DEB", "OBJECT_ID": "1999-025AQM", "EPOCH": "2025-12-13T18:57:42.024672", "MEAN_MOTION": 13.79716589, "ECCENTRICITY": 0.01716149, "INCLINATION": 99.3815, "RA_OF_ASC_NODE": 39.5306, "ARG_OF_PERICENTER": 76.0458, "MEAN_ANOMALY": 351.8601, "EPHEMERIS_TYPE": 0, "CLASSIFICATION_TYPE": "U", "NORAD_CAT_ID": 30679, "ELEMENT_SET_NO": 999, "REV_AT_EPOCH": 94534, "BSTAR": 0.00081471141, "MEAN_MOTION_DOT": 8.97e-06, "MEAN_MOTION_DDOT": 0}, "tle": {"line1": "1 30679U 99025AQM 25347.79006973  .00000897  00000+0  81471-3 0  9999", "line2": "2 30679  99.3815  39.5306 0171614  76.0458 351.8601 13.79716589945343"}}, "geometry": {"type": "Point", "coordinates": [43.14988969942116, -15.10430487508358]}}, {"type": "Feature", "properties": {"norad_id": 30680, "name": "FENGYUN 1C DEB", "group": "fengyun-1c-debris", "lat": 26.23254521498919, "lon": 26.6326916438816, "alt_km": 1225.2725022064878, "timestamp": "2025-12-14T20:40:32.049764+00:00", "meta": {"OBJECT_NAME": "FENGYUN 1C DEB", "OBJECT_ID": "1999-025AQN", "EPOCH": "2025-12-14T01:03:32.491584", "MEAN_MOTION": 13.56122141, "ECCENTRICITY": 0.03397642, "INCLINATION": 99.6304, "RA_OF_ASC_NODE": 30.6319, "ARG_OF_PERICENTER": 164.5557, "MEAN_ANOMALY": 196.6264, "EPHEMERIS_TYPE": 0, "CLASSIFICATION_TYPE": "U", "NORAD_CAT_ID": 30680, "ELEMENT_SET_NO": 999, "REV_AT_EPOCH": 92271, "BSTAR": 0.0048136696, "MEAN_MOTION_DOT": 4.857e-05, "MEAN_MOTION_DDOT": 0}, "tle": {"line1": "1 30680U 99025AQN 25348.04412606  .00004857  00000+0  48137-2 0  9995", "line2": "2 30680  99.6304  30.6319 0339764 164.5557 196.6264 13.56122141922718"}}, "geometry": {"type": "Point", "coordinates": [26.6326916438816, 26.23254521498919]}}, {"type": "Feature", "properties": {"norad_id": 30683, "name": "FENGYUN 1C DEB", "group": "fengyun-1c-debris", "lat": -40.79362977316274, "lon": 8.662336563823597, "alt_km": 914.6109018097768, "timestamp": "2025-12-14T20:40:32.049774+00:00", "meta": {"OBJECT_NAME": "FENGYUN 1C DEB", "OBJECT_ID": "1999-025AQR", "EPOCH": "2025-12-13T00:24:03.909024", "MEAN_MOTION": 14.00388306, "ECCENTRICITY": 0.01382918, "INCLINATION": 99.4279, "RA_OF_ASC_NODE": 358.5166, "ARG_OF_PERICENTER": 223.8636, "MEAN_ANOMALY": 157.9668, "EPHEMERIS_TYPE": 0, "CLASSIFICATION_TYPE": "U", "NORAD_CAT_ID": 30683, "ELEMENT_SET_NO": 999, "REV_AT_EPOCH": 95555, "BSTAR": 0.0018173202, "MEAN_MOTION_DOT": 2.878e-05, "MEAN_MOTION_DDOT": 0}, "tle": {"line1": "1 30683U 99025AQR 25347.01671191  .00002878  00000+0  18173-2 0  9998", "line2": "2 30683  99.4279 358.5166 0138291 223.8636 157.9668 14.00388306955554"}}, "geometry": {"type": "Point", "coordinates": [8.662336563823597, -40.79362977316274]}}, {"type": "Feature", "properties": {"norad_id": 30684, "name": "FENGYUN 1C DEB", "group": "fengyun-1c-debris", "lat": -52.68702624158917, "lon": -162.5140465738166, "alt_km": 866.6932651505495, "timestamp": "2025-12-14T20:40:32.049784+00:00", "meta": {"OBJECT_NAME": "FENGYUN 1C DEB", "OBJECT_ID": "1999-025AQS", "EPOCH": "2025-12-14T01:56:52.082304", "MEAN_MOTION": 13.6680812, "ECCENTRICITY": 0.02350447, "INCLINATION": 99.5314, "RA_OF_ASC_NODE": 29.4517, "ARG_OF_PERICENTER": 265.819, "MEAN_ANOMALY": 91.6063, "EPHEMERIS_TYPE": 0, "CLASSIFICATION_TYPE": "U", "NORAD_CAT_ID": 30684, "ELEMENT_SET_NO": 999, "REV_AT_EPOCH": 93647, "BSTAR": 0.0012358252, "MEAN_MOTION_DOT": 1.2e-05, "MEAN_MOTION_DDOT": 0}, "tle": {"line1": "1 30684U 99025AQS 25348.08115836  .00001200  00000+0  12358-2 0  9993", "line2": "2 30684  99.5314  29.4517 0235044 265.8190  91.6063 13.66808120936470"}}, "geometry": {"type": "Point", "coordinates": [-162.5140465738166, -52.68702624158917]}}, {"type": "Feature", "properties": {"norad_id": 30686, "name": "FENGYUN 1C DEB", "group": "fengyun-1c-debris", "lat": -80.398485825326, "lon": -106.87870516431167, "alt_km": 750.4527301477528, "timestamp": "2025-12-14T20:40:32.049794+00:00", "meta": {"OBJECT_NAME": "FENGYUN 1C DEB", "OBJECT_ID": "1999-025AQU", "EPOCH": "2025-12-14T05:03:11.514816", "MEAN_MOTION": 14.73901833, "ECCENTRICITY": 0.01441352, "INCLINATION": 99.0332, "RA_OF_ASC_NODE": 182.2751, "ARG_OF_PERICENTER": 116.0572, "MEAN_ANOMALY": 304.7507, "EPHEMERIS_TYPE": 0, "CLASSIFICATION_TYPE": "U", "NORAD_CAT_ID": 30686, "ELEMENT_SET_NO": 999, "REV_AT_EPOCH": 99623, "BSTAR": 0.00077785161, "MEAN_MOTION_DOT": 5.961e-05, "MEAN_MOTION_DDOT": 0}, "tle": {"line1": "1 30686U 99025AQU 25348.21054994  .00005961  00000+0  77785-3 0  9991", "line2": "2 30686  99.0332 182.2751 0144135 116.0572 304.7507 14.73901833996231"}}, "geometry": {"type": "Point", "coordinates": [-106.87870516431167, -80.398485825326]}}, {"type": "Feature", "properties": {"norad_id": 30688, "name": "FENGYUN 1C DEB", "group": "fengyun-1c-debris", "lat": -80.44652561132087, "lon": 127.74264367095032, "alt_km": 781.0725698304714, "timestamp": "2025-12-14T20:40:32.049804+00:00", "meta": {"OBJECT_NAME": "FENGYUN 1C DEB", "OBJECT_ID": "1999-025AQW", "EPOCH": "2025-12-14T04:34:23.234880", "MEAN_MOTION": 14.32715262, "ECCENTRICITY": 0.00151955, "INCLINATION": 98.7014, "RA_OF_ASC_NODE": 61.5719, "ARG_OF_PERICENTER": 311.1078, "MEAN_ANOMALY": 104.3802, "EPHEMERIS_TYPE": 0, "CLASSIFICATION_TYPE": "U", "NORAD_CAT_ID": 30688, "ELEMENT_SET_NO": 999, "REV_AT_EPOCH": 97281, "BSTAR": 0.0018818567, "MEAN_MOTION_DOT": 5.086e-05, "MEAN_MOTION_DDOT": 0}, "tle": {"line1": "1 30688U 99025AQW 25348.19054670  .00005086  00000+0  18819-2 0  9991", "line2": "2 30688  98.7014  61.5719 0015195 311.1078 104.3802 14.32715262972815"}}, "geometry": {"type": "Point", "coordinates": [127.74264367095032, -80.44652561132087]}}]}